STARLINK-30994          
1 58483U 23186L   24249.03309727  .00001313  00000+0  60001-4 0  9998
2 58483  42.9984 125.2206 0000292  41.8554 318.2320 15.25906403 43645
STARLINK-30991          
1 58484U 23186M   24249.16198429 -.00011452  00000+0 -83263-3 0  9999
2 58484  43.0024 178.3566 0001129 269.8523  90.2190 15.02600299 43033
STARLINK-30979          
1 58485U 23186N   24249.20529555  .00006236  00000+0  47641-3 0  9995
2 58485  42.9994 178.6885 0000872 322.1269  37.9512 15.02525769 43033
STARLINK-31005          
1 58486U 23186P   24249.20195229  .00001988  00000+0  16216-3 0  9996
2 58486  43.0026 178.6612 0001231 263.5748  96.4954 15.02540880 43031
STARLINK-30987          
1 58487U 23186Q   24249.19862428  .00001444  00000+0  12193-3 0  9994
2 58487  43.0014 178.6362 0001119 273.4655  86.6059 15.02542346 43039
STARLINK-31000          
1 58488U 23186R   24249.19529427  .00000856  00000+0  78428-4 0  9994
2 58488  43.0066 178.6093 0001085 280.3048  79.7672 15.02537493 43034
STARLINK-30993          
1 58489U 23186S   24248.92604893 -.00000238  00000+0 -25352-5 0  9991
2 58489  43.0023 180.0341 0001660 287.8543  72.2118 15.02542764 42996
STARLINK-30978          
1 58490U 23186T   24249.18863988 -.00000416  00000+0 -15709-4 0  9996
2 58490  43.0011 178.5656 0001391 265.2015  94.8668 15.02534757 43030
STARLINK-30953          
1 58491U 23186U   24249.06274260 -.00002074  00000+0 -69452-4 0  9999
2 58491  43.0035 136.7466 0000891 339.3597  20.7218 15.25923150 43688
STARLINK-30986          
1 58492U 23186V   24249.17863678  .00001132  00000+0  98793-4 0  9991
2 58492  43.0013 178.4863 0001328 252.1256 107.9442 15.02548561 43039
STARLINK-30985          
1 58493U 23186W   24249.17532039 -.00000130  00000+0  54377-5 0  9995
2 58493  43.0008 178.4640 0001300 264.3288  95.7406 15.02532137 43033
STARLINK-30981          
1 58494U 23186X   24249.17198500 -.00001875  00000+0 -12371-3 0  9991
2 58494  43.0017 178.4366 0000679 160.6085 199.4783 15.02546543 43036
STARLINK-31002          
1 58495U 23186Y   24249.23513107  .00002356  00000+0  18939-3 0  9992
2 58495  43.0026 178.0522 0001758 261.9325  98.1317 15.02542078 43215
STARLINK-31026          
1 58508U 23191A   24249.88389971  .00000443  00000+0  47856-4 0  9990
2 58508  43.0012 214.5546 0000940 257.4657 102.6081 15.02537437 42757
STARLINK-31020          
1 58509U 23191B   24249.28238404  .00001563  00000+0  13071-3 0  9994
2 58509  42.9999 218.6316 0001150 247.6322 112.4398 15.02536368 42622
STARLINK-30989          
1 58510U 23191C   24249.29756164  .00001130  00000+0  98668-4 0  9991
2 58510  43.0014 217.0403 0001094 262.3997  97.6721 15.02539217 42678
STARLINK-30968          
1 58511U 23191D   24249.29423457  .00002611  00000+0  20824-3 0  9991
2 58511  43.0038 217.0172 0000811 196.8721 163.2094 15.02536275 42641
STARLINK-30982          
1 58512U 23191E   24249.29090282  .00000677  00000+0  65204-4 0  9990
2 58512  43.0025 216.9898 0000922 258.1789 101.8950 15.02537917 42643
STARLINK-30998          
1 58513U 23191F   24249.28757052 -.00003288  00000+0 -22828-3 0  9992
2 58513  43.0046 216.9573 0000878 269.4932  90.5810 15.02560558 42671
STARLINK-30983          
1 58514U 23191G   24248.97837705  .00000739  00000+0  69723-4 0  9994
2 58514  42.9978 218.0940 0000762 264.0470  96.0286 15.02534484 42256
STARLINK-31017          
1 58515U 23191H   24249.00428982  .00007124  00000+0  17751-3 0  9991
2 58515  43.0030 124.1150 0001656 290.3357  69.7322 15.40725004 43696
STARLINK-31028          
1 58516U 23191J   24249.87921453  .00000624  00000+0  61251-4 0  9991
2 58516  43.0017 213.6569 0000892 241.0069 119.0684 15.02538336 42714
STARLINK-31011          
1 58517U 23191K   24249.88254551 -.00000170  00000+0  25158-5 0  9995
2 58517  43.0001 213.6834 0001044 264.9066  95.1658 15.02533251 42765
STARLINK-31021          
1 58518U 23191L   24249.30077407  .00000831  00000+0  76534-4 0  9992
2 58518  43.0013 216.1878 0000742 269.8492  90.2265 15.02536515 42650
STARLINK-31010          
1 58519U 23191M   24249.30409552  .00001392  00000+0  11806-3 0  9996
2 58519  43.0006 216.1801 0000683 261.3747  98.7018 15.02539956 42654
STARLINK-31003          
1 58520U 23191N   24249.27758665  .00006250  00000+0  47721-3 0  9999
2 58520  43.0033 216.8835 0001296 271.3057  88.7637 15.02547329 42644
STARLINK-31015          
1 58521U 23191P   24249.27425286  .00000961  00000+0  86200-4 0  9999
2 58521  43.0018 216.8621 0000882 242.5675 117.5077 15.02537758 42618
STARLINK-31023          
1 58522U 23191Q   24249.27092693  .00000896  00000+0  81365-4 0  9996
2 58522  43.0037 216.8305 0000976 266.7003  93.3728 15.02535344 42642
STARLINK-30932          
1 58523U 23191R   24249.26757422 -.00012094  00000+0 -88033-3 0  9997
2 58523  43.0006 216.8051 0001499 269.4220  90.6451 15.02596947 42592
STARLINK-30992          
1 58524U 23191S   24248.99835700  .00000479  00000+0  50548-4 0  9996
2 58524  43.0005 218.2246 0000944 258.8446 101.2290 15.02532898 42607
STARLINK-30948          
1 58525U 23191T   24249.32741151  .00001065  00000+0  93872-4 0  9990
2 58525  43.0031 216.3966 0000963 262.3613  97.7120 15.02538459 42657
STARLINK-31013          
1 58526U 23191U   24249.32408719 -.00003129  00000+0 -21672-3 0  9994
2 58526  43.0004 216.3702 0001110 253.6646 106.4074 15.02528933 42652
STARLINK-31001          
1 58527U 23191V   24249.30742163  .00000583  00000+0  58184-4 0  9995
2 58527  43.0029 216.1627 0000936 265.7078  94.3657 15.02538452 42651
STARLINK-31004          
1 58528U 23191W   24249.25426886 -.00002747  00000+0 -18838-3 0  9998
2 58528  43.0011 216.7070 0000887 272.1861  87.8880 15.02531439 42640
STARLINK-30988          
1 58529U 23191X   24249.25094705  .00000216  00000+0  31049-4 0  9997
2 58529  42.9993 216.6872 0001028 264.7391  95.3333 15.02535692 42642
STARLINK-31009          
1 58530U 23191Y   24249.31409148  .00001302  00000+0  11139-3 0  9991
2 58530  43.0012 216.3011 0000871 272.4940  87.5802 15.02540225 42676
STARLINK-31012          
1 58531U 23192A   24249.82784988 -.00001023  00000+0 -19294-4 0  9990
2 58531  53.1589  97.1814 0001349  48.3591 311.7527 15.34206706 42985
STARLINK-31035          
1 58532U 23192B   24249.83034516  .00054760  00000+0  17989-2 0  9998
2 58532  53.1593  96.4571 0000745 348.9560  11.1425 15.31059944 42993
STARLINK-31036          
1 58533U 23192C   24249.82034558  .00021784  00000+0  73047-3 0  9992
2 58533  53.1593  97.1546 0002033  33.9751 326.1380 15.30859203 42993
STARLINK-30936          
1 58534U 23192D   24249.86218446  .00033149  00000+0  96303-3 0  9995
2 58534  53.1591  96.6870 0001139  41.0290 319.0799 15.35203432 42997
STARLINK-31032          
1 58535U 23192E   24249.88800404 -.00000180  00000+0  58163-5 0  9993
2 58535  53.1605  96.8449 0000831 133.4500 226.6571 15.34213002 43003
STARLINK-31037          
1 58536U 23192F   24249.83776851  .00010894  00000+0  40520-3 0  9995
2 58536  53.1605  96.5486 0001023 116.6687 243.4417 15.28033677 43002
STARLINK-31041          
1 58537U 23192G   24249.87867931  .00000178  00000+0  16471-4 0  9993
2 58537  53.1590  96.7876 0000725  96.7205 263.3880 15.34219491 43005
STARLINK-31014          
1 58538U 23192H   24249.50001157  .00091506  00000+0  30647-2 0  9998
2 58538  53.1591  98.3997 0000703 130.8586  16.8092 15.30190938  5922
STARLINK-31055          
1 58539U 23192J   24249.86827891  .00000797  00000+0  39030-4 0  9998
2 58539  53.1589  96.7173 0000435  94.2834 265.8217 15.30190717 42997
STARLINK-31019          
1 58540U 23192K   24249.80421817 -.00002376  00000+0 -59605-4 0  9999
2 58540  53.1584  97.0330 0001004  60.4094 299.7008 15.34211242 42983
STARLINK-31045          
1 58541U 23192L   24249.86296978  .00018972  00000+0  13404-2 0  9996
2 58541  53.1587 120.9508 0001256  93.1877 266.9257 15.04945056 42640
STARLINK-31030          
1 58542U 23192M   24249.80612783  .00000942  00000+0  43928-4 0  9991
2 58542  53.1585  97.0472 0001020 102.3241 257.7874 15.30195019 42985
STARLINK-31049          
1 58543U 23192N   24249.87461654  .00004817  00000+0  17481-3 0  9997
2 58543  53.1603  96.7619 0001126 126.5772 233.5333 15.30167325 42992
STARLINK-31048          
1 58544U 23192P   24249.83555629  .00000260  00000+0  20925-4 0  9996
2 58544  53.1611  96.4766 0001845 146.7478 213.3639 15.30190350 43009
STARLINK-31057          
1 58545U 23192Q   24249.87777656  .00000815  00000+0  39657-4 0  9995
2 58545  53.1577  96.7809 0000886  75.5366 284.5733 15.30191566 43006
STARLINK-31050          
1 58546U 23192R   24249.88095399 -.00002021  00000+0 -56186-4 0  9993
2 58546  53.1603  96.7974 0001065  87.4766 272.6357 15.30177460 42934
STARLINK-31063          
1 58547U 23192S   24248.90090690  .00001089  00000+0  43571-4 0  9990
2 58547  53.1614  99.1739 0001021  85.4931 274.6188 15.34219208 41683
STARLINK-31016          
1 58548U 23192T   24248.85900186  .00001039  00000+0  47217-4 0  9991
2 58548  53.1606 101.0413 0001247  89.4206 270.6938 15.30194174 41652
STARLINK-31053          
1 58549U 23192U   24249.88411022 -.00000706  00000+0 -11710-4 0  9993
2 58549  53.1605  96.8165 0001154 104.1662 255.9467 15.30192452 42993
STARLINK-31056          
1 58550U 23192V   24249.84189781  .00001328  00000+0  56958-4 0  9997
2 58550  53.1599  96.5509 0001152  82.8359 277.2772 15.30191764 43003
STARLINK-30999          
1 58551U 23192W   24249.84379770 -.00000180  00000+0  57927-5 0  9991
2 58551  53.1599  87.2239 0000659 112.0205 248.0867 15.34222159 43073
STARLINK-31046          
1 58552U 23192X   24249.82620306 -.00003639  00000+0 -11094-3 0  9990
2 58552  53.1603  97.1642 0001013 105.1106 255.0007 15.30164926 42982
STARLINK-31044          
1 58589U 23200A   24249.08777450  .00000891  00000+0  80976-4 0  9992
2 58589  42.9974 281.6911 0001125 273.3967  86.6747 15.02539848 40777
